[Satellite]
VERSION=1.1
NAME=COSMOS 2151
NICKNAME=COSMOS 2151
TLE1=1 21422U 91042A   17186.17499422  .00000144  00000-0  11757-4 0  9992
TLE2=2 21422  82.4998 229.3294 0013007 230.2358 129.7717 14.91830988390106
